[{"OBJECT_NAME":"STARLINK-1320","OBJECT_ID":"2020-025AT","EPOCH":"2026-03-09T22:25:05.757888","MEAN_MOTION":15.68740025,"ECCENTRICITY":0.00073169,"INCLINATION":53.0503,"RA_OF_ASC_NODE":344.5237,"ARG_OF_PERICENTER":58.0358,"MEAN_ANOMALY":302.1368,"EPHEMERIS_TYPE":0,"CLASSIFICATION_TYPE":"U","NORAD_CAT_ID":45572,"ELEMENT_SET_NO":999,"REV_AT_EPOCH":32684,"BSTAR":0.00068865274,"MEAN_MOTION_DOT":0.00080462,"MEAN_MOTION_DDOT":0},{"OBJECT_NAME":"STARLINK-1944","OBJECT_ID":"2020-074BK","EPOCH":"2026-03-09T20:28:07.313952","MEAN_MOTION":15.65043683,"ECCENTRICITY":0.00014732,"INCLINATION":53.0458,"RA_OF_ASC_NODE":270.0769,"ARG_OF_PERICENTER":278.468,"MEAN_ANOMALY":81.6167,"EPHEMERIS_TYPE":0,"CLASSIFICATION_TYPE":"U","NORAD_CAT_ID":46796,"ELEMENT_SET_NO":999,"REV_AT_EPOCH":29741,"BSTAR":0.00086927912,"MEAN_MOTION_DOT":0.00087509,"MEAN_MOTION_DDOT":0}]
